QIANFAN-132             
1 69078U 26104F   26155.08380463  .00000105  00000+0  44114-4 0  9997
2 69078  88.9863 343.1158 0004872 137.3334 222.8234 14.18146758  3229
QIANFAN-133             
1 69079U 26104G   26155.21024721  .00000121  00000+0  51104-4 0  9990
2 69079  88.9862 343.0973 0004409 147.0181 213.1284 14.19028613  3247
QIANFAN-134             
1 69080U 26104H   26155.20508120  .00000123  00000+0  51491-4 0  9992
2 69080  88.9862 343.0965 0005342 131.4482 228.7168 14.19324081  3249
QIANFAN-135             
1 69081U 26104J   26155.20061713  .00000118  00000+0  49125-4 0  9990
2 69081  88.9863 343.0961 0004218 159.1924 200.9438 14.19621553  3242
QIANFAN-136             
1 69082U 26104K   26155.12643010  .00000128  00000+0  53546-4 0  9991
2 69082  88.9862 343.1033 0004662 147.3148 212.8331 14.19913857  3237
QIANFAN-137             
1 69083U 26104L   26155.07534737  .00000122  00000+0  45587-4 0  9991
2 69083  88.9862 343.0956 0005365 141.0424 219.1156 14.25196145  3235
QIANFAN-138             
1 69084U 26104M   26155.11579034  .00000123  00000+0  50436-4 0  9996
2 69084  88.9863 343.1018 0004217 149.1344 211.0095 14.20801408  3235
QIANFAN-139             
1 69085U 26104N   26155.18178919  .00000135  00000+0  55730-4 0  9996
2 69085  88.9863 343.0930 0004187 139.1038 221.0467 14.21102156  3243
QIANFAN-140             
1 69086U 26104P   26155.10726652  .00000128  00000+0  52138-4 0  9993
2 69086  88.9863 343.1005 0004207 143.7302 216.4174 14.21391771  3231
QIANFAN-141             
1 69087U 26104Q   26155.17386576  .00000118  00000+0  47093-4 0  9991
2 69087  88.9862 343.0917 0003846 139.4955 220.6523 14.21633161  3244
QIANFAN-142             
1 69088U 26104R   26155.16920263  .00000124  00000+0  49512-4 0  9993
2 69088  88.9862 343.0910 0005093 131.5498 228.6131 14.21951974  3247
QIANFAN-143             
1 69089U 26104S   26155.15818330  .00000126  00000+0  49220-4 0  9992
2 69089  88.9862 343.0893 0004383 133.2538 226.9021 14.23170537  3242
QIANFAN-144             
1 69090U 26104T   26155.16312515  .00000127  00000+0  50420-4 0  9994
2 69090  88.9862 343.0901 0003785 124.2656 235.8894 14.22581318  3249
ZHUQUE-2E R/B           
1 69095U 26105A   26154.92797245  .00192353 -78821-6  47356-3 0  9990
2 69095  88.9715 196.0713 0464444 349.0426  10.0954 15.13269183  3146
2026-106A               
1 69097U 26106A   26154.77048861  .00007975  00000+0  47981-3 0  9994
2 69097  97.5095 237.0979 0013793 206.6730 153.3792 15.11022505  2950
2026-106B               
1 69098U 26106B   26154.77503644  .00005409  00000+0  34002-3 0  9990
2 69098  97.5076 237.0874 0014198 202.6781 157.3822 15.09567421  2952
2026-106C               
1 69099U 26106C   26154.76997645  .00007825  00000+0  47041-3 0  9999
2 69099  97.5099 237.0996 0013580 207.4843 152.5671 15.11063491  2959
2026-106D               
1 69100U 26106D   26154.76833032  .00007272  00000+0  43598-3 0  9990
2 69100  97.5075 237.0959 0013228 210.1175 149.9296 15.11188780  2955
2026-106E               
1 69101U 26106E   26152.57989091  .00009485  00000+0  56369-3 0  9993
2 69101  97.5078 234.9552 0015007 220.2305 139.7815 15.11402667  2629
DRAGON CRS-34           
1 69103U 26107A   26154.96745432  .00008451  00000+0  15807-3 0  9994
2 69103  51.6330   5.5404 0007082 130.0270 230.1341 15.49590346570032
QIANFAN-145             
1 69104U 26108A   26155.12774941  .00000365  00000+0  17748-3 0  9994
2 69104  89.0121  23.6750 0015295 154.5519 205.6425 14.16075204  2497
QIANFAN-146             
1 69105U 26108B   26155.14492545  .00000416  00000+0  17696-3 0  9993
2 69105  89.0124  23.6597 0015599 153.1380 207.0623 14.23382758  2509
QIANFAN-147             
1 69106U 26108C   26155.11623933  .00000362  00000+0  17282-3 0  9999
2 69106  89.0120  23.6732 0015301 151.6295 208.5730 14.17031957  2494
QIANFAN-148             
1 69107U 26108D   26155.11093241  .00000350  00000+0  16587-3 0  9997
2 69107  89.0121  23.6726 0015777 156.6939 203.4968 14.17401050  2498
QIANFAN-149             
1 69108U 26108E   26155.10908238  .00000363  00000+0  17074-3 0  9994
2 69108  89.0123  23.6727 0015424 155.9438 204.2474 14.17855585  2494
QIANFAN-150             
1 69109U 26108F   26155.10163010  .00000355  00000+0  16523-3 0  9995
2 69109  89.0124  23.6717 0015443 157.7273 202.4590 14.18304098  2491
QIANFAN-151             
1 69110U 26108G   26155.09702752  .00000378  00000+0  17464-3 0  9997
2 69110  89.0123  23.6708 0015557 156.2706 203.9204 14.18799670  2495
QIANFAN-152             
1 69111U 26108H   26155.16399502  .00000374  00000+0  17099-3 0  9991
2 69111  89.0122  23.6623 0014782 155.9534 204.2349 14.19417070  2503
QIANFAN-153             
1 69112U 26108J   26155.08885793  .00000338  00000+0  15304-3 0  9992
2 69112  89.0120  23.6692 0015977 156.1762 204.0170 14.19640030  2493
