OBJECT_NAME,OBJECT_ID,EPOCH,MEAN_MOTION,ECCENTRICITY,INCLINATION,RA_OF_ASC_NODE,ARG_OF_PERICENTER,MEAN_ANOMALY,EPHEMERIS_TYPE,CLASSIFICATION_TYPE,NORAD_CAT_ID,ELEMENT_SET_NO,REV_AT_EPOCH,BSTAR,MEAN_MOTION_DOT,MEAN_MOTION_DDOT
QIANFAN-132,2026-104F,2026-06-04T02:00:40.720032,14.18146758,.0004872,88.9863,343.1158,137.3334,222.8234,0,U,69078,999,322,.44114E-4,.105E-5,0
QIANFAN-133,2026-104G,2026-06-04T05:02:45.358944,14.19028613,.0004409,88.9862,343.0973,147.0181,213.1284,0,U,69079,999,324,.51104E-4,.121E-5,0
QIANFAN-134,2026-104H,2026-06-04T04:55:19.015680,14.19324081,.0005342,88.9862,343.0965,131.4482,228.7168,0,U,69080,999,324,.51491E-4,.123E-5,0
QIANFAN-135,2026-104J,2026-06-04T04:48:53.320032,14.19621553,.0004218,88.9863,343.0961,159.1924,200.9438,0,U,69081,999,324,.49125E-4,.118E-5,0
QIANFAN-136,2026-104K,2026-06-04T03:02:03.560640,14.19913857,.0004662,88.9862,343.1033,147.3148,212.8331,0,U,69082,999,323,.53546E-4,.128E-5,0
QIANFAN-137,2026-104L,2026-06-04T01:48:30.012768,14.25196145,.0005365,88.9862,343.0956,141.0424,219.1156,0,U,69083,999,323,.45587E-4,.122E-5,0
QIANFAN-138,2026-104M,2026-06-04T02:46:44.285376,14.20801408,.0004217,88.9863,343.1018,149.1344,211.0095,0,U,69084,999,323,.50436E-4,.123E-5,0
QIANFAN-139,2026-104N,2026-06-04T04:21:46.586016,14.21102156,.0004187,88.9863,343.0930,139.1038,221.0467,0,U,69085,999,324,.5573E-4,.135E-5,0
QIANFAN-140,2026-104P,2026-06-04T02:34:27.827328,14.21391771,.0004207,88.9863,343.1005,143.7302,216.4174,0,U,69086,999,323,.52138E-4,.128E-5,0
QIANFAN-141,2026-104Q,2026-06-04T04:10:22.001664,14.21633161,.0003846,88.9862,343.0917,139.4955,220.6523,0,U,69087,999,324,.47093E-4,.118E-5,0
QIANFAN-142,2026-104R,2026-06-04T04:03:39.107232,14.21951974,.0005093,88.9862,343.0910,131.5498,228.6131,0,U,69088,999,324,.49512E-4,.124E-5,0
QIANFAN-143,2026-104S,2026-06-04T03:47:47.037120,14.23170537,.0004383,88.9862,343.0893,133.2538,226.9021,0,U,69089,999,324,.4922E-4,.126E-5,0
QIANFAN-144,2026-104T,2026-06-04T03:54:54.012960,14.22581318,.0003785,88.9862,343.0901,124.2656,235.8894,0,U,69090,999,324,.5042E-4,.127E-5,0
ZHUQUE-2E R/B,2026-105A,2026-06-03T22:16:16.819680,15.13269183,.04644445,88.9715,196.0713,349.0426,10.0954,0,U,69095,999,314,.47356231E-3,.192353E-2,-.788211E-6
2026-106A,2026-106A,2026-06-03T18:29:30.215904,15.11022505,.00137936,97.5095,237.0979,206.6730,153.3792,0,U,69097,999,295,.47981051E-3,.7975E-4,0
2026-106B,2026-106B,2026-06-03T18:36:03.148416,15.09567421,.00141984,97.5076,237.0874,202.6781,157.3822,0,U,69098,999,295,.34002022E-3,.5409E-4,0
2026-106C,2026-106C,2026-06-03T18:28:45.965280,15.11063491,.00135804,97.5099,237.0996,207.4843,152.5671,0,U,69099,999,295,.47040928E-3,.7825E-4,0
2026-106D,2026-106D,2026-06-03T18:26:23.739648,15.11188780,.00132281,97.5075,237.0959,210.1175,149.9296,0,U,69100,999,295,.43598028E-3,.7272E-4,0
2026-106E,2026-106E,2026-06-01T13:55:02.574624,15.11402667,.00150074,97.5078,234.9552,220.2305,139.7815,0,U,69101,999,262,.5636941E-3,.9485E-4,0
DRAGON CRS-34,2026-107A,2026-06-03T23:13:08.053248,15.49590346,.0007082,51.6330,5.5404,130.0270,230.1341,0,U,69103,999,57003,.15807E-3,.8451E-4,0
QIANFAN-145,2026-108A,2026-06-04T03:03:57.549024,14.16075204,.0015295,89.0121,23.6750,154.5519,205.6425,0,U,69104,999,249,.17748E-3,.365E-5,0
QIANFAN-146,2026-108B,2026-06-04T03:28:41.558880,14.23382758,.0015599,89.0124,23.6597,153.1380,207.0623,0,U,69105,999,250,.17696E-3,.416E-5,0
QIANFAN-147,2026-108C,2026-06-04T02:47:23.078112,14.17031957,.0015301,89.0120,23.6732,151.6295,208.5730,0,U,69106,999,249,.17282E-3,.362E-5,0
QIANFAN-148,2026-108D,2026-06-04T02:39:44.560224,14.17401050,.0015777,89.0121,23.6726,156.6939,203.4968,0,U,69107,999,249,.16587E-3,.35E-5,0
QIANFAN-149,2026-108E,2026-06-04T02:37:04.717632,14.17855585,.0015424,89.0123,23.6727,155.9438,204.2474,0,U,69108,999,249,.17074E-3,.363E-5,0
QIANFAN-150,2026-108F,2026-06-04T02:26:20.840640,14.18304098,.0015443,89.0124,23.6717,157.7273,202.4590,0,U,69109,999,249,.16523E-3,.355E-5,0
QIANFAN-151,2026-108G,2026-06-04T02:19:43.177728,14.18799670,.0015557,89.0123,23.6708,156.2706,203.9204,0,U,69110,999,249,.17464E-3,.378E-5,0
QIANFAN-152,2026-108H,2026-06-04T03:56:09.169728,14.19417070,.0014782,89.0122,23.6623,155.9534,204.2349,0,U,69111,999,250,.17099E-3,.374E-5,0
QIANFAN-153,2026-108J,2026-06-04T02:07:57.325152,14.19640030,.0015977,89.0120,23.6692,156.1762,204.0170,0,U,69112,999,249,.15304E-3,.338E-5,0
